[{"OBJECT_NAME":"STARLINK-36862","OBJECT_ID":"2026-039T","EPOCH":"2026-03-05T14:00:01.999872","MEAN_MOTION":15.98835644,"ECCENTRICITY":0.00019127,"INCLINATION":42.998,"RA_OF_ASC_NODE":80.3217,"ARG_OF_PERICENTER":270.3393,"MEAN_ANOMALY":32.896,"EPHEMERIS_TYPE":0,"CLASSIFICATION_TYPE":"U","NORAD_CAT_ID":68003,"ELEMENT_SET_NO":999,"REV_AT_EPOCH":221,"BSTAR":-0.0028532968,"MEAN_MOTION_DOT":-0.01418409,"MEAN_MOTION_DDOT":0.00061363417},{"OBJECT_NAME":"STARLINK-36888","OBJECT_ID":"2026-039U","EPOCH":"2026-03-05T14:00:01.999872","MEAN_MOTION":15.98445661,"ECCENTRICITY":0.00018093,"INCLINATION":42.9982,"RA_OF_ASC_NODE":80.3345,"ARG_OF_PERICENTER":269.9198,"MEAN_ANOMALY":28.4349,"EPHEMERIS_TYPE":0,"CLASSIFICATION_TYPE":"U","NORAD_CAT_ID":68004,"ELEMENT_SET_NO":999,"REV_AT_EPOCH":221,"BSTAR":-0.0029390817,"MEAN_MOTION_DOT":-0.01429104,"MEAN_MOTION_DDOT":0.00061959561},{"OBJECT_NAME":"STARLINK-36910","OBJECT_ID":"2026-039V","EPOCH":"2026-03-05T14:00:01.999872","MEAN_MOTION":15.98720203,"ECCENTRICITY":0.00018809,"INCLINATION":42.9979,"RA_OF_ASC_NODE":80.3255,"ARG_OF_PERICENTER":270.4881,"MEAN_ANOMALY":31.2861,"EPHEMERIS_TYPE":0,"CLASSIFICATION_TYPE":"U","NORAD_CAT_ID":68005,"ELEMENT_SET_NO":999,"REV_AT_EPOCH":221,"BSTAR":-0.0028896206,"MEAN_MOTION_DOT":-0.0142701,"MEAN_MOTION_DDOT":0.00061972387},{"OBJECT_NAME":"STARLINK-36889","OBJECT_ID":"2026-039W","EPOCH":"2026-03-05T14:00:01.999872","MEAN_MOTION":15.98963952,"ECCENTRICITY":0.00018708,"INCLINATION":42.998,"RA_OF_ASC_NODE":80.3175,"ARG_OF_PERICENTER":273.1249,"MEAN_ANOMALY":31.6542,"EPHEMERIS_TYPE":0,"CLASSIFICATION_TYPE":"U","NORAD_CAT_ID":68006,"ELEMENT_SET_NO":999,"REV_AT_EPOCH":221,"BSTAR":-0.0028278709,"MEAN_MOTION_DOT":-0.01416029,"MEAN_MOTION_DDOT":0.00061257848},{"OBJECT_NAME":"STARLINK-36592","OBJECT_ID":"2026-039X","EPOCH":"2026-03-05T14:00:01.999872","MEAN_MOTION":15.99089798,"ECCENTRICITY":0.00018734,"INCLINATION":42.9979,"RA_OF_ASC_NODE":80.3142,"ARG_OF_PERICENTER":270.8933,"MEAN_ANOMALY":35.4217,"EPHEMERIS_TYPE":0,"CLASSIFICATION_TYPE":"U","NORAD_CAT_ID":68007,"ELEMENT_SET_NO":999,"REV_AT_EPOCH":221,"BSTAR":-0.0028008065,"MEAN_MOTION_DOT":-0.0141256,"MEAN_MOTION_DDOT":0.00061064305},{"OBJECT_NAME":"STARLINK-36911","OBJECT_ID":"2026-039Y","EPOCH":"2026-03-05T14:00:01.999872","MEAN_MOTION":15.99221647,"ECCENTRICITY":0.00019426,"INCLINATION":42.998,"RA_OF_ASC_NODE":80.3099,"ARG_OF_PERICENTER":268.9516,"MEAN_ANOMALY":39.0047,"EPHEMERIS_TYPE":0,"CLASSIFICATION_TYPE":"U","NORAD_CAT_ID":68008,"ELEMENT_SET_NO":999,"REV_AT_EPOCH":221,"BSTAR":-0.0027796431,"MEAN_MOTION_DOT":-0.01412442,"MEAN_MOTION_DDOT":0.00061140689},{"OBJECT_NAME":"STARLINK-36956","OBJECT_ID":"2026-039Z","EPOCH":"2026-03-05T14:00:01.999872","MEAN_MOTION":15.9934567,"ECCENTRICITY":0.00017343,"INCLINATION":42.9978,"RA_OF_ASC_NODE":80.3057,"ARG_OF_PERICENTER":274.2905,"MEAN_ANOMALY":35.2157,"EPHEMERIS_TYPE":0,"CLASSIFICATION_TYPE":"U","NORAD_CAT_ID":68009,"ELEMENT_SET_NO":999,"REV_AT_EPOCH":221,"BSTAR":-0.0027466894,"MEAN_MOTION_DOT":-0.01405597,"MEAN_MOTION_DDOT":0.00060678124},{"OBJECT_NAME":"STARLINK-36953","OBJECT_ID":"2026-039AA","EPOCH":"2026-03-05T14:00:01.999872","MEAN_MOTION":15.99620192,"ECCENTRICITY":0.00018659,"INCLINATION":42.9978,"RA_OF_ASC_NODE":80.2969,"ARG_OF_PERICENTER":270.0225,"MEAN_ANOMALY":42.9045,"EPHEMERIS_TYPE":0,"CLASSIFICATION_TYPE":"U","NORAD_CAT_ID":68010,"ELEMENT_SET_NO":999,"REV_AT_EPOCH":221,"BSTAR":-0.0027202171,"MEAN_MOTION_DOT":-0.01413941,"MEAN_MOTION_DDOT":0.00061521201},{"OBJECT_NAME":"STARLINK-36991","OBJECT_ID":"2026-039AB","EPOCH":"2026-03-05T14:00:01.999872","MEAN_MOTION":15.99747408,"ECCENTRICITY":0.00019009,"INCLINATION":42.9978,"RA_OF_ASC_NODE":80.2929,"ARG_OF_PERICENTER":271.9917,"MEAN_ANOMALY":42.6069,"EPHEMERIS_TYPE":0,"CLASSIFICATION_TYPE":"U","NORAD_CAT_ID":68011,"ELEMENT_SET_NO":999,"REV_AT_EPOCH":221,"BSTAR":-0.0026738083,"MEAN_MOTION_DOT":-0.01400143,"MEAN_MOTION_DDOT":0.00060506279},{"OBJECT_NAME":"STARLINK-36936","OBJECT_ID":"2026-039AC","EPOCH":"2026-03-05T14:00:01.999872","MEAN_MOTION":16.00005729,"ECCENTRICITY":0.00018643,"INCLINATION":42.9977,"RA_OF_ASC_NODE":80.2842,"ARG_OF_PERICENTER":275.6338,"MEAN_ANOMALY":42.2371,"EPHEMERIS_TYPE":0,"CLASSIFICATION_TYPE":"U","NORAD_CAT_ID":68012,"ELEMENT_SET_NO":999,"REV_AT_EPOCH":221,"BSTAR":-0.0026133424,"MEAN_MOTION_DOT":-0.01389013,"MEAN_MOTION_DDOT":0.00059792365},{"OBJECT_NAME":"STARLINK-36967","OBJECT_ID":"2026-039AD","EPOCH":"2026-03-05T14:00:01.999872","MEAN_MOTION":15.99477459,"ECCENTRICITY":0.00018709,"INCLINATION":42.9977,"RA_OF_ASC_NODE":80.3013,"ARG_OF_PERICENTER":271.5161,"MEAN_ANOMALY":39.6405,"EPHEMERIS_TYPE":0,"CLASSIFICATION_TYPE":"U","NORAD_CAT_ID":68013,"ELEMENT_SET_NO":999,"REV_AT_EPOCH":221,"BSTAR":-0.0027241163,"MEAN_MOTION_DOT":-0.01404602,"MEAN_MOTION_DDOT":0.00060684653},{"OBJECT_NAME":"STARLINK-36985","OBJECT_ID":"2026-039AE","EPOCH":"2026-03-05T14:00:01.999872","MEAN_MOTION":15.99876545,"ECCENTRICITY":0.00018835,"INCLINATION":42.9978,"RA_OF_ASC_NODE":80.2887,"ARG_OF_PERICENTER":274.181,"MEAN_ANOMALY":41.9935,"EPHEMERIS_TYPE":0,"CLASSIFICATION_TYPE":"U","NORAD_CAT_ID":68014,"ELEMENT_SET_NO":999,"REV_AT_EPOCH":221,"BSTAR":-0.0026628352,"MEAN_MOTION_DOT":-0.01404682,"MEAN_MOTION_DDOT":0.00060951119}]
